{
  "type": "FeatureCollection",
  "features": [
    {
      "type": "Feature",
      "properties": {
        "norad_id": 66915,
        "name": "HULIANWANG DIGUI-105",
        "group": "last-30-days",
        "lat": 14.38464206580195,
        "lon": 121.72335003290974,
        "alt_km": 879.399426754977,
        "timestamp": "2025-12-14T16:47:39.439417+00:00",
        "meta_object_name": "HULIANWANG DIGUI-105",
        "meta_object_id": "2025-285A",
        "meta_epoch": "2025-12-13T23:37:06.339360",
        "meta_mean_motion": 14.03715558,
        "meta_eccentricity": 0.00079422,
        "meta_inclination": 50.0042,
        "meta_ra_of_asc_node": 112.205,
        "meta_arg_of_pericenter": 286.9205,
        "meta_mean_anomaly": 73.0828,
        "meta_ephemeris_type": 0,
        "meta_classification_type": "U",
        "meta_norad_cat_id": 66915,
        "meta_element_set_no": 999,
        "meta_rev_at_epoch": 108,
        "meta_bstar": 0.00013537033,
        "meta_mean_motion_dot": 6.3e-07,
        "meta_mean_motion_ddot": 0,
        "tle_line1": "1 66915U 25285A   25347.98410115  .00000063  00000+0  13537-3 0  9999",
        "tle_line2": "2 66915  50.0042 112.2050 0007942 286.9205  73.0828 14.03715558  1081"
      },
      "geometry": {
        "type": "Point",
        "coordinates": [
          121.72335003290974,
          14.38464206580195
        ]
      }
    },
    {
      "type": "Feature",
      "properties": {
        "norad_id": 66916,
        "name": "HULIANWANG DIGUI-106",
        "group": "last-30-days",
        "lat": 25.24281698259396,
        "lon": 132.5786852685141,
        "alt_km": 875.6872171039313,
        "timestamp": "2025-12-14T16:47:39.439427+00:00",
        "meta_object_name": "HULIANWANG DIGUI-106",
        "meta_object_id": "2025-285B",
        "meta_epoch": "2025-12-13T23:33:41.200704",
        "meta_mean_motion": 14.04834865,
        "meta_eccentricity": 0.00069622,
        "meta_inclination": 50.0051,
        "meta_ra_of_asc_node": 112.1935,
        "meta_arg_of_pericenter": 280.5388,
        "meta_mean_anomaly": 79.4732,
        "meta_ephemeris_type": 0,
        "meta_classification_type": "U",
        "meta_norad_cat_id": 66916,
        "meta_element_set_no": 999,
        "meta_rev_at_epoch": 108,
        "meta_bstar": 0.00015535046,
        "meta_mean_motion_dot": 9.9e-07,
        "meta_mean_motion_ddot": 0,
        "tle_line1": "1 66916U 25285B   25347.98172686  .00000099  00000+0  15535-3 0  9997",
        "tle_line2": "2 66916  50.0051 112.1935 0006962 280.5388  79.4732 14.04834865  1084"
      },
      "geometry": {
        "type": "Point",
        "coordinates": [
          132.5786852685141,
          25.24281698259396
        ]
      }
    },
    {
      "type": "Feature",
      "properties": {
        "norad_id": 66917,
        "name": "HULIANWANG DIGUI-107",
        "group": "last-30-days",
        "lat": 28.98277531360893,
        "lon": 136.9622484869435,
        "alt_km": 872.3603619153964,
        "timestamp": "2025-12-14T16:47:39.439437+00:00",
        "meta_object_name": "HULIANWANG DIGUI-107",
        "meta_object_id": "2025-285C",
        "meta_epoch": "2025-12-13T23:32:41.966592",
        "meta_mean_motion": 14.05580859,
        "meta_eccentricity": 0.00075297,
        "meta_inclination": 50.0019,
        "meta_ra_of_asc_node": 112.1856,
        "meta_arg_of_pericenter": 289.3996,
        "meta_mean_anomaly": 70.6095,
        "meta_ephemeris_type": 0,
        "meta_classification_type": "U",
        "meta_norad_cat_id": 66917,
        "meta_element_set_no": 999,
        "meta_rev_at_epoch": 108,
        "meta_bstar": 8.617802e-06,
        "meta_mean_motion_dot": -1.38e-06,
        "meta_mean_motion_ddot": 0,
        "tle_line1": "1 66917U 25285C   25347.98104128 -.00000138  00000+0  86178-5 0  9992",
        "tle_line2": "2 66917  50.0019 112.1856 0007529 289.3996  70.6095 14.05580859  1080"
      },
      "geometry": {
        "type": "Point",
        "coordinates": [
          136.9622484869435,
          28.98277531360893
        ]
      }
    },
    {
      "type": "Feature",
      "properties": {
        "norad_id": 66918,
        "name": "HULIANWANG DIGUI-108",
        "group": "last-30-days",
        "lat": 31.446144679832383,
        "lon": 140.13282690718887,
        "alt_km": 871.9674999507224,
        "timestamp": "2025-12-14T16:47:39.439447+00:00",
        "meta_object_name": "HULIANWANG DIGUI-108",
        "meta_object_id": "2025-285D",
        "meta_epoch": "2025-12-13T23:31:44.551200",
        "meta_mean_motion": 14.05705809,
        "meta_eccentricity": 0.00064868,
        "meta_inclination": 50.0039,
        "meta_ra_of_asc_node": 112.1845,
        "meta_arg_of_pericenter": 284.479,
        "meta_mean_anomaly": 75.5396,
        "meta_ephemeris_type": 0,
        "meta_classification_type": "U",
        "meta_norad_cat_id": 66918,
        "meta_element_set_no": 999,
        "meta_rev_at_epoch": 108,
        "meta_bstar": 0.00014624626,
        "meta_mean_motion_dot": 8.8e-07,
        "meta_mean_motion_ddot": 0,
        "tle_line1": "1 66918U 25285D   25347.98037675  .00000088  00000+0  14625-3 0  9994",
        "tle_line2": "2 66918  50.0039 112.1845 0006486 284.4790  75.5396 14.05705809  1082"
      },
      "geometry": {
        "type": "Point",
        "coordinates": [
          140.13282690718887,
          31.446144679832383
        ]
      }
    },
    {
      "type": "Feature",
      "properties": {
        "norad_id": 66919,
        "name": "HULIANWANG DIGUI-109",
        "group": "last-30-days",
        "lat": 31.742753484926226,
        "lon": 140.53359879660545,
        "alt_km": 871.301955155559,
        "timestamp": "2025-12-14T16:47:39.439457+00:00",
        "meta_object_name": "HULIANWANG DIGUI-109",
        "meta_object_id": "2025-285E",
        "meta_epoch": "2025-12-13T23:31:37.572672",
        "meta_mean_motion": 14.05717464,
        "meta_eccentricity": 0.000789,
        "meta_inclination": 50.0063,
        "meta_ra_of_asc_node": 112.1877,
        "meta_arg_of_pericenter": 295.9066,
        "meta_mean_anomaly": 64.1025,
        "meta_ephemeris_type": 0,
        "meta_classification_type": "U",
        "meta_norad_cat_id": 66919,
        "meta_element_set_no": 999,
        "meta_rev_at_epoch": 108,
        "meta_bstar": 0.00015433885,
        "meta_mean_motion_dot": 1.01e-06,
        "meta_mean_motion_ddot": 0,
        "tle_line1": "1 66919U 25285E   25347.98029598  .00000101  00000+0  15434-3 0  9995",
        "tle_line2": "2 66919  50.0063 112.1877 0007890 295.9066  64.1025 14.05717464  1081"
      },
      "geometry": {
        "type": "Point",
        "coordinates": [
          140.53359879660545,
          31.742753484926226
        ]
      }
    },
    {
      "type": "Feature",
      "properties": {
        "norad_id": 66920,
        "name": "HULIANWANG DIGUI-110",
        "group": "last-30-days",
        "lat": 34.28242362937893,
        "lon": 144.1469478102066,
        "alt_km": 870.5555419555649,
        "timestamp": "2025-12-14T16:47:39.439468+00:00",
        "meta_object_name": "HULIANWANG DIGUI-110",
        "meta_object_id": "2025-285F",
        "meta_epoch": "2025-12-13T23:30:36.008352",
        "meta_mean_motion": 14.05851669,
        "meta_eccentricity": 0.00058509,
        "meta_inclination": 50.0096,
        "meta_ra_of_asc_node": 112.1881,
        "meta_arg_of_pericenter": 292.7365,
        "meta_mean_anomaly": 67.2922,
        "meta_ephemeris_type": 0,
        "meta_classification_type": "U",
        "meta_norad_cat_id": 66920,
        "meta_element_set_no": 999,
        "meta_rev_at_epoch": 108,
        "meta_bstar": 0.00014206592,
        "meta_mean_motion_dot": 8.1e-07,
        "meta_mean_motion_ddot": 0,
        "tle_line1": "1 66920U 25285F   25347.97958343  .00000081  00000+0  14207-3 0  9999",
        "tle_line2": "2 66920  50.0096 112.1881 0005850 292.7365  67.2922 14.05851669  1081"
      },
      "geometry": {
        "type": "Point",
        "coordinates": [
          144.1469478102066,
          34.28242362937893
        ]
      }
    },
    {
      "type": "Feature",
      "properties": {
        "norad_id": 66921,
        "name": "HULIANWANG DIGUI-111",
        "group": "last-30-days",
        "lat": 34.928572257591455,
        "lon": 145.12703993734095,
        "alt_km": 870.2007829219183,
        "timestamp": "2025-12-14T16:47:39.439481+00:00",
        "meta_object_name": "HULIANWANG DIGUI-111",
        "meta_object_id": "2025-285G",
        "meta_epoch": "2025-12-13T23:30:19.998432",
        "meta_mean_motion": 14.05885367,
        "meta_eccentricity": 0.00069934,
        "meta_inclination": 50.0112,
        "meta_ra_of_asc_node": 112.1893,
        "meta_arg_of_pericenter": 299.1649,
        "meta_mean_anomaly": 60.8556,
        "meta_ephemeris_type": 0,
        "meta_classification_type": "U",
        "meta_norad_cat_id": 66921,
        "meta_element_set_no": 999,
        "meta_rev_at_epoch": 108,
        "meta_bstar": 0.00014794536,
        "meta_mean_motion_dot": 9.1e-07,
        "meta_mean_motion_ddot": 0,
        "tle_line1": "1 66921U 25285G   25347.97939813  .00000091  00000+0  14795-3 0  9994",
        "tle_line2": "2 66921  50.0112 112.1893 0006993 299.1649  60.8556 14.05885367  1083"
      },
      "geometry": {
        "type": "Point",
        "coordinates": [
          145.12703993734095,
          34.928572257591455
        ]
      }
    }
  ]
}